IRIDIUM 150             
1 43257U 18030J   23292.48197677  .00000456  00000+0  15587-3 0  9993
2 43257  86.3983 336.5913 0001921  98.0444 262.0970 14.34222027290882
IRIDIUM 143             
1 43258U 18030K   23292.18388186  .00000371  00000+0  12540-3 0  9990
2 43258  86.3988 336.7695 0002244  98.3070 261.8381 14.34216394290775
IRIDIUM 161             
1 43478U 18047C   23292.49721274  .00000239  00000+0  65165-4 0  9990
2 43478  86.4479 134.6138 0002050  84.7232 275.4202 14.43287670284980
IRIDIUM 152             
1 43479U 18047D   23292.50544262  .00000251  00000+0  82559-4 0  9993
2 43479  86.3955 134.4700 0002171  93.1460 266.9985 14.34215228283211
IRIDIUM 147             
1 43480U 18047E   23292.51177634  .00000625  00000+0  21601-3 0  9996
2 43480  86.3951 134.4554 0002085  80.8310 279.3122 14.34221648283211
IRIDIUM 110             
1 43481U 18047F   23292.51812280  .00000154  00000+0  47870-4 0  9994
2 43481  86.3956 134.5195 0001961  78.3332 281.8084 14.34218137283200
IRIDIUM 162             
1 43482U 18047G   23292.49093799  .00000479  00000+0  13632-3 0  9996
2 43482  86.4476 134.5198 0002068  85.3813 274.7624 14.43277225284972
IRIDIUM 160             
1 43569U 18061A   23292.46396273  .00000209  00000+0  67572-4 0  9992
2 43569  86.3917 102.9033 0002380  88.8809 271.2659 14.34218197274099
